{"generatedAt":"2026-04-09T07:46:42.583708Z","satellites":[{"name":"KUIPER-00230","tle1":"1 79864C 26072G   26099.12569444  .00003905  00000+0  10079-3 0   999","tle2":"2 79864  51.8754 150.8621 0001739  87.5654   2.3881 15.38546503    17"},{"name":"KUIPER-00231","tle1":"1 79865C 26072H   26099.08188657  .00004860  00000+0  12776-3 0   995","tle2":"2 79865  51.8735 151.1001 0003034 106.5158  92.4162 15.37976209    15"},{"name":"KUIPER-00234","tle1":"1 79866C 26072J   26099.08190972  .00005115  00000+0  13322-3 0   991","tle2":"2 79866  51.8746 151.0891 0002335  88.9212 114.3274 15.38265079    16"},{"name":"KUIPER-00236","tle1":"1 79867C 26072K   26099.20981482  .00000758  00000+0  19790-4 0   994","tle2":"2 79867  51.8749 150.4680 0002783  92.4147  99.5467 15.38175953    12"},{"name":"KUIPER-00244","tle1":"1 79868C 26072L   26099.21121528  .00000374  00000+0  99014-5 0   995","tle2":"2 79868  51.8747 150.4787 0004180 112.2183  79.4660 15.37793271    13"},{"name":"KUIPER-00253","tle1":"1 79869C 26072M   26099.08622685  .00004264  00000+0  11431-3 0   998","tle2":"2 79869  51.8707 151.1052 0005830 118.9121  93.0992 15.37364855    13"},{"name":"KUIPER-00254","tle1":"1 79870C 26072N   26099.13159722 -.00054867  00000+0 -14969-2 0   997","tle2":"2 79870  51.8710 150.9051 0007764 123.4390 330.1676 15.36866048    16"},{"name":"KUIPER-00263","tle1":"1 79871C 26072P   26099.21781250  .00000543  00000+0  14037-4 0   992","tle2":"2 79871  51.8753 150.4190 0002030  62.4623 177.5292 15.38479958    14"},{"name":"KUIPER-00269","tle1":"1 79872C 26072Q   26099.19722222  .00000227  00000+0  60587-5 0   995","tle2":"2 79872  51.8731 150.5553 0004712 102.9182   8.6658 15.37516420    19"},{"name":"KUIPER-00272","tle1":"1 79873C 26072R   26099.09349537  .00004174  00000+0  11220-3 0   992","tle2":"2 79873  51.8716 151.0712 0006060 116.0162 135.0691 15.37277653    12"},{"name":"KUIPER-00285","tle1":"1 79874C 26072S   26099.08653935  .00004110  00000+0  11079-3 0   994","tle2":"2 79874  51.8726 151.1078 0006567 121.8080  88.7645 15.37185274    15"},{"name":"KUIPER-00286","tle1":"1 79875C 26072T   26099.21189815  .00000228  00000+0  60741-5 0   999","tle2":"2 79875  51.8723 150.4866 0004395 106.1671  86.3466 15.37612473    10"},{"name":"KUIPER-00289","tle1":"1 79876C 26072U   26099.21848380 -.00000795  00000+0 -22323-4 0   993","tle2":"2 79876  51.8649 150.5233 0011098 137.3794  60.1020 15.35885859    11"},{"name":"KUIPER-00290","tle1":"1 79877C 26072V   26099.21814815 -.00000765  00000+0 -21403-4 0   995","tle2":"2 79877  51.8634 150.5218 0011105 133.7582  63.5177 15.35978173    15"},{"name":"KUIPER-00293","tle1":"1 79878C 26072W   26099.23721065 -.00001839  00000+0 -52070-4 0   999","tle2":"2 79878  51.8632 150.4432 0012105 140.2717 155.9175 15.35613068    18"},{"name":"KUIPER-00294","tle1":"1 79879C 26072X   26099.21605324 -.00000667  00000+0 -18577-4 0   999","tle2":"2 79879  51.8672 150.5232 0009949 134.7056  54.8328 15.36154506    13"},{"name":"KUIPER-00296","tle1":"1 79880C 26072Y   26099.21503472 -.00000504  00000+0 -13862-4 0   994","tle2":"2 79880  51.8692 150.5146 0008723 128.5458  61.5119 15.36542299    10"},{"name":"KUIPER-00297","tle1":"1 79881C 26072Z   26099.21781250 -.00000731  00000+0 -20416-4 0   992","tle2":"2 79881  51.8620 150.5205 0010435 135.2119  61.7892 15.36067484    18"},{"name":"KUIPER-00300","tle1":"1 79882C 26072AA  26099.22403935 -.00000821  00000+0 -22461-4 0   997","tle2":"2 79882  51.8666 150.4648 0008319 128.7183 114.8927 15.36724137    19"},{"name":"KUIPER-00301","tle1":"1 79883C 26072AB  26099.09627315  .00003476  00000+0  96085-4 0   993","tle2":"2 79883  51.8644 151.0932 0009006 131.4270 119.7234 15.36393100    18"},{"name":"KUIPER-00304","tle1":"1 79884C 26072AC  26099.21707176 -.00000636  00000+0 -17620-4 0   997","tle2":"2 79884  51.8657 150.5125 0009664 131.4848  66.7472 15.36309439    19"},{"name":"KUIPER-00317","tle1":"1 79885C 26072AD  26099.21673611 -.00000512  00000+0 -14042-4 0   992","tle2":"2 79885  51.8679 150.5037 0008740 124.0871  76.9933 15.36629355    11"},{"name":"KUIPER-00320","tle1":"1 79886C 26072AE  26099.21883102 -.00000814  00000+0 -22892-4 0   998","tle2":"2 79886  51.8597 150.5242 0011407 137.4165  60.8455 15.35824050    16"}]}